[{"OBJECT_NAME":"STARLINK-1672","OBJECT_ID":"2020-070F","EPOCH":"2026-03-09T11:05:55.803552","MEAN_MOTION":15.52192937,"ECCENTRICITY":0.000391,"INCLINATION":53.0484,"RA_OF_ASC_NODE":139.8842,"ARG_OF_PERICENTER":58.9279,"MEAN_ANOMALY":301.2113,"EPHEMERIS_TYPE":0,"CLASSIFICATION_TYPE":"U","NORAD_CAT_ID":46537,"ELEMENT_SET_NO":999,"REV_AT_EPOCH":30000,"BSTAR":0.00076733946,"MEAN_MOTION_DOT":0.00047121,"MEAN_MOTION_DDOT":0},{"OBJECT_NAME":"SITRO-AIS 40","OBJECT_ID":"2024-199AT","EPOCH":"2026-03-09T22:35:37.656384","MEAN_MOTION":15.51458954,"ECCENTRICITY":0.0006478,"INCLINATION":97.3071,"RA_OF_ASC_NODE":303.3931,"ARG_OF_PERICENTER":301.7881,"MEAN_ANOMALY":58.274,"EPHEMERIS_TYPE":0,"CLASSIFICATION_TYPE":"U","NORAD_CAT_ID":61776,"ELEMENT_SET_NO":999,"REV_AT_EPOCH":12219,"BSTAR":0.00081572905,"MEAN_MOTION_DOT":0.00048299,"MEAN_MOTION_DDOT":0}]
